OBJECT B                
1 51825U 22019B   26004.99733542  .00045364  00000+0  68638-3 0  9994
2 51825  97.3651  90.2441 0007953  12.7398 347.4056 15.54520823214256
